H1 CPF  1  DGF 2022 07 03 11  6841 larets     NONE      
H2   304206 5557    27944 2022 07 03 00 00 00 2022 07 10 00 00 00    30 1 1  0 0 0
H5  0.0650
H9
10 0 59769  21600.000000  0       3816627.241      -5498565.709      -2281885.327
10 0 59769  21630.000000  0       3815545.333      -5582511.650      -2070124.186
10 0 59769  21660.000000  0       3810253.509      -5660803.568      -1856256.140
10 0 59769  21690.000000  0       3800781.659      -5733343.400      -1640498.671
10 0 59769  21720.000000  0       3787164.339      -5800039.060      -1423071.240
10 0 59769  21750.000000  0       3769440.708      -5860804.545      -1204195.058
10 0 59769  21780.000000  0       3747654.472      -5915560.059       -984092.860
10 0 59769  21810.000000  0       3721853.802      -5964232.106       -762988.672
10 0 59769  21840.000000  0       3692091.266      -6006753.595       -541107.579
10 0 59769  21870.000000  0       3658423.748      -6043063.923       -318675.493
10 0 59769  21900.000000  0       3620912.354      -6073109.064        -95918.920
10 0 59769  21930.000000  0       3579622.331      -6096841.641        126935.275
10 0 59769  21960.000000  0       3534622.968      -6114220.995        349660.101
10 0 59769  21990.000000  0       3485987.502      -6125213.250        572028.676
10 0 59769  22020.000000  0       3433793.011      -6129791.364        793814.471
10 0 59769  22050.000000  0       3378120.307      -6127935.177       1014791.541
10 0 59769  22080.000000  0       3319053.825      -6119631.447       1234734.768
10 0 59769  22110.000000  0       3256681.498      -6104873.870       1453420.100
10 0 59769  22140.000000  0       3191094.639      -6083663.100       1670624.772
10 0 59769  22170.000000  0       3122387.813      -6056006.763       1886127.542
10 0 59769  22200.000000  0       3050658.715      -6021919.460       2099708.917
10 0 59769  22230.000000  0       2976008.034      -5981422.768       2311151.379
10 0 59769  22260.000000  0       2898539.317      -5934545.223       2520239.619
10 0 59769  22290.000000  0       2818358.829      -5881322.299       2726760.746
10 0 59769  22320.000000  0       2735575.414      -5821796.381       2930504.511
10 0 59769  22350.000000  0       2650300.355      -5756016.732       3131263.519
10 0 59769  22380.000000  0       2562647.228      -5684039.450       3328833.441
10 0 59769  22410.000000  0       2472731.756      -5605927.417       3523013.227
10 0 59769  22440.000000  0       2380671.660      -5521750.242       3713605.307
10 0 59769  22470.000000  0       2286586.510      -5431584.195       3900415.799
10 0 59769  22500.000000  0       2190597.565      -5335512.134       4083254.700
10 0 59769  22530.000000  0       2092827.627      -5233623.419       4261936.082
10 0 59769  22560.000000  0       1993400.882      -5126013.826       4436278.276
10 0 59769  22590.000000  0       1892442.749      -5012785.452       4606104.052
10 0 59769  22620.000000  0       1790079.726      -4894046.613       4771240.800
10 0 59769  22650.000000  0       1686439.236      -4769911.739       4931520.702
10 0 59769  22680.000000  0       1581649.465      -4640501.261       5086780.906
10 0 59769  22710.000000  0       1475839.211      -4505941.483       5236863.687
10 0 59769  22740.000000  0       1369137.718      -4366364.456       5381616.606
10 0 59769  22770.000000  0       1261674.526      -4221907.835       5520892.660
10 0 59769  22800.000000  0       1153579.312      -4072714.744       5654550.421
10 0 59769  22830.000000  0       1044981.736      -3918933.625       5782454.177
10 0 59769  22860.000000  0        936011.285      -3760718.087       5904474.063
10 0 59769  22890.000000  0        826797.125      -3598226.750       6020486.183
10 0 59769  22920.000000  0        717467.950      -3431623.081       6130372.735
10 0 59769  22950.000000  0        608151.828      -3261075.230       6234022.118
10 0 59769  22980.000000  0        498976.057      -3086755.859       6331329.046
10 0 59769  23010.000000  0        390067.018      -2908841.961       6422194.650
10 0 59769  23040.000000  0        281550.031      -2727514.684       6506526.568
10 0 59769  23070.000000  0        173549.212      -2542959.142       6584239.035
10 0 59769  23100.000000  0         66187.337      -2355364.230       6655252.968
10 0 59769  23130.000000  0        -40414.296      -2164922.433       6719496.039
10 0 59769  23160.000000  0       -146136.004      -1971829.627       6776902.752
10 0 59769  23190.000000  0       -250859.852      -1776284.882       6827414.506
10 0 59769  23220.000000  0       -354469.784      -1578490.254       6870979.657
10 0 59769  23250.000000  0       -456851.748      -1378650.575       6907553.562
10 0 59769  23280.000000  0       -557893.820      -1176973.244       6937098.628
10 0 59769  23310.000000  0       -657486.323       -973668.013       6959584.351
10 0 59769  23340.000000  0       -755521.951       -768946.771       6974987.342
10 0 59769  23370.000000  0       -851895.882       -563023.321       6983291.359
10 0 59769  23400.000000  0       -946505.886       -356113.163       6984487.316
10 0 59769  23430.000000  0      -1039252.440       -148433.270       6978573.302
10 0 59769  23460.000000  0      -1130038.828         59798.140       6965554.577
10 0 59769  23490.000000  0      -1218771.243        268361.832       6945443.579
10 0 59769  23520.000000  0      -1305358.883        477037.779       6918259.909
10 0 59769  23550.000000  0      -1389714.045        685605.397       6884030.314
10 0 59769  23580.000000  0      -1471752.214        893843.773       6842788.669
10 0 59769  23610.000000  0      -1551392.150       1101531.896       6794575.947
10 0 59769  23640.000000  0      -1628555.968       1308448.896       6739440.186
10 0 59769  23670.000000  0      -1703169.220       1514374.274       6677436.440
10 0 59769  23700.000000  0      -1775160.963       1719088.138       6608626.737
10 0 59769  23730.000000  0      -1844463.829       1922371.435       6533080.018
10 0 59769  23760.000000  0      -1911014.092       2124006.191       6450872.078
10 0 59769  23790.000000  0      -1974751.726       2323775.741       6362085.500
10 0 59769  23820.000000  0      -2035620.463       2521464.968       6266809.572
10 0 59769  23850.000000  0      -2093567.843       2716860.538       6165140.207
10 0 59769  23880.000000  0      -2148545.258       2909751.124       6057179.852
10 0 59769  23910.000000  0      -2200507.997       3099927.643       5943037.396
10 0 59769  23940.000000  0      -2249415.282       3287183.481       5822828.067
10 0 59769  23970.000000  0      -2295230.302       3471314.731       5696673.332
10 0 59769  24000.000000  0      -2337920.244       3652120.415       5564700.773
10 0 59769  24030.000000  0      -2377456.315       3829402.712       5427043.965
10 0 59769  24060.000000  0      -2413813.763       4002967.181       5283842.352
10 0 59769  24090.000000  0      -2446971.885       4172622.981       5135241.106
10 0 59769  24120.000000  0      -2476914.041       4338183.087       4981390.991
10 0 59769  24150.000000  0      -2503627.655       4499464.506       4822448.210
10 0 59769  24180.000000  0      -2527104.213       4656288.487       4658574.256
10 0 59769  24210.000000  0      -2547339.261       4808480.728       4489935.749
10 0 59769  24240.000000  0      -2564332.387       4955871.578       4316704.271
10 0 59769  24270.000000  0      -2578087.213       5098296.240       4139056.193
10 0 59769  24300.000000  0      -2588611.367       5235594.960       3957172.497
10 0 59769  24330.000000  0      -2595916.460       5367613.216       3771238.588
10 0 59769  24360.000000  0      -2600018.052       5494201.902       3581444.110
10 0 59769  24390.000000  0      -2600935.614       5615217.502       3387982.750
10 0 59769  24420.000000  0      -2598692.493       5730522.263       3191052.041
10 0 59769  24450.000000  0      -2593315.858       5839984.362       2990853.158
10 0 59769  24480.000000  0      -2584836.658       5943478.065       2787590.713
10 0 59769  24510.000000  0      -2573289.559       6040883.878       2581472.540
10 0 59769  24540.000000  0      -2558712.887       6132088.700       2372709.480
10 0 59769  24570.000000  0      -2541148.563       6216985.957       2161515.157
10 0 59769  24600.000000  0      -2520642.031       6295475.734       1948105.760
10 0 59769  24630.000000  0      -2497242.182       6367464.900       1732699.811
10 0 59769  24660.000000  0      -2471001.280       6432867.226       1515517.938
10 0 59769  24690.000000  0      -2441974.873       6491603.491       1296782.643
10 0 59769  24720.000000  0      -2410221.712       6543601.589       1076718.064
10 0 59769  24750.000000  0      -2375803.656       6588796.615        855549.740
10 0 59769  24780.000000  0      -2338785.577       6627130.955        633504.368
10 0 59769  24810.000000  0      -2299235.264       6658554.358        410809.564
10 0 59769  24840.000000  0      -2257223.317       6683024.000        187693.623
10 0 59769  24870.000000  0      -2212823.046       6700504.552        -35614.728
10 0 59769  24900.000000  0      -2166110.359       6710968.225       -258886.570
10 0 59769  24930.000000  0      -2117163.652       6714394.812       -481893.046
10 0 59769  24960.000000  0      -2066063.696       6710771.721       -704405.601
10 0 59769  24990.000000  0      -2012893.511       6700093.995       -926196.235
10 0 59769  25020.000000  0      -1957738.249       6682364.322      -1147037.750
10 0 59769  25050.000000  0      -1900685.064       6657593.031      -1366703.991
10 0 59769  25080.000000  0      -1841822.988       6625798.075      -1584970.088
10 0 59769  25110.000000  0      -1781242.804       6587005.019      -1801612.683
10 0 59769  25140.000000  0      -1719036.917       6541247.014      -2016410.173
10 0 59769  25170.000000  0      -1655299.222       6488564.755      -2229142.936
99
